STARLINK-1848           
1 46740U 20074B   22276.15937797 -.00000073  00000+0  13981-4 0  9997
2 46740  53.0544 193.9427 0001443  87.3921 272.7233 15.06398086107674
STARLINK-1865           
1 46741U 20074C   22275.51295455 -.00001254  00000+0 -65307-4 0  9997
2 46741  53.0541 191.8431 0001399  83.5542 276.5606 15.06399548107659
STARLINK-1872           
1 46742U 20074D   22276.05066761  .00454485  00000+0  10425-1 0  9998
2 46742  53.0547 185.6022 0001466  67.6398 292.4761 15.40434961107780
STARLINK-1892           
1 46743U 20074E   22276.16905175  .00000922  00000+0  80775-4 0  9993
2 46743  53.0545 188.8794 0001456 104.8542 255.2608 15.06408010107767
STARLINK-1894           
1 46744U 20074F   22275.78845567  .00000160  00000+0  29653-4 0  9991
2 46744  53.0532 190.6035 0001512  62.5200 297.5942 15.06394063107680
STARLINK-1898           
1 46745U 20074G   22275.89048194  .00150178  00000+0  90538-3 0  9999
2 46745  53.0493  99.7740 0001091 146.3364 213.7725 15.76727635108955
STARLINK-1905           
1 46746U 20074H   22276.13587905 -.00000725  00000+0 -29769-4 0  9999
2 46746  53.0556 189.0456 0001699  58.7361 301.3794 15.06412312107753
STARLINK-1908           
1 46747U 20074J   22275.98475094  .00043502  00000+0  29170-2 0  9999
2 46747  53.0524 189.7277 0001006  92.3720 267.7385 15.06456263107734
STARLINK-1910           
1 46748U 20074K   22276.19116583  .00001804  00000+0  13997-3 0  9999
2 46748  53.0523 188.7932 0001319  88.1915 271.9225 15.06403906107766
STARLINK-1911           
1 46749U 20074L   22276.06584806  .00007783  00000+0  54085-3 0  9998
2 46749  53.0529 189.3634 0001621  82.7900 277.3273 15.06397230107742
STARLINK-1920           
1 46751U 20074N   22275.46503483 -.00001118  00000+0 -56155-4 0  9995
2 46751  53.0545 192.0645 0001589  97.3019 262.8151 15.06393660107637
STARLINK-1921           
1 46752U 20074P   22275.74149462 -.00001348  00000+0 -71645-4 0  9996
2 46752  53.0568 190.8124 0001533  94.4883 265.6282 15.06394400107670
STARLINK-1922           
1 46753U 20074Q   22276.17274347  .00002658  00000+0  19732-3 0  9997
2 46753  53.0540 188.8793 0001650  76.8933 283.2240 15.06396474107763
STARLINK-1923           
1 46754U 20074R   22276.18010392  .00001323  00000+0  10768-3 0  9995
2 46754  53.0548 188.8351 0001424 102.4557 257.6591 15.06410980107751
STARLINK-1924           
1 46755U 20074S   22275.78710340  .00001480  00000+0  11824-3 0  9999
2 46755  53.0530 195.6006 0001612  70.7336 289.3827 15.06390890107613
STARLINK-1925           
1 46756U 20074T   22276.14836777 -.00000558  00000+0 -18600-4 0  9991
2 46756  53.0544 194.3759 0001453  73.6974 286.4174 15.06397382107686
STARLINK-1926           
1 46757U 20074U   22275.49962464  .00016436  00000+0  11202-2 0  9991
2 46757  53.0523 197.1298 0001656  73.6514 286.4657 15.06384428107568
STARLINK-1928           
1 46758U 20074V   22275.76867398 -.00000763  00000+0 -32351-4 0  9990
2 46758  53.0529 195.6766 0001796  71.5224 288.5960 15.06390563107611
STARLINK-1833           
1 46759U 20074W   22276.09579106  .00004094  00000+0  29356-3 0  9994
2 46759  53.0529 204.2347 0001518  79.2057 280.9103 15.06405729107251
STARLINK-1896           
1 46760U 20074X   22275.50974737  .00002244  00000+0  16951-3 0  9992
2 46760  53.0547 206.8635 0001276  77.1554 282.9577 15.06397597107431
STARLINK-1902           
1 46763U 20074AA  22276.01885032  .00300477  00000+0  26202-2 0  9999
2 46763  53.0505 134.9985 0001230 105.8076 254.3075 15.67525649108508
STARLINK-1903           
1 46764U 20074AB  22276.16583374 -.00000720  00000+0 -29430-4 0  9998
2 46764  53.0551 203.9126 0001597  67.8490 292.2668 15.06403915107543
STARLINK-1906           
1 46765U 20074AC  22276.15477290 -.00000816  00000+0 -35902-4 0  9994
2 46765  53.0544 203.9449 0001402  87.3964 272.7186 15.06404074107255
STARLINK-1916           
1 46766U 20074AD  22275.08583973 -.00000073  00000+0  14028-4 0  9992
2 46766  53.0569 208.7638 0001412  67.1984 292.9154 15.06396637107103
STARLINK-1917           
1 46767U 20074AE  22275.84516428 -.00001052  00000+0 -51780-4 0  9993
2 46767  53.0539 205.3543 0001502  99.8626 260.2533 15.06392099107482
STARLINK-1918           
1 46768U 20074AF  22276.18056783 -.00000295  00000+0 -92273-6 0  9997
2 46768  53.0539 203.8380 0001685  64.1727 295.9436 15.06396071107553
STARLINK-1932           
1 46770U 20074AH  22276.12165292  .00001277  00000+0  10456-3 0  9999
2 46770  53.0564 204.6651 0001472  74.4123 285.7028 15.06411330107530
STARLINK-1936           
1 46772U 20074AK  22275.78891661  .00000870  00000+0  77278-4 0  9992
2 46772  53.0543 205.5969 0001211  83.4503 276.6624 15.06403575107470
STARLINK-1939           
1 46774U 20074AM  22275.47874800  .00038915  00000+0  18233-2 0  9991
2 46774  53.0480 190.8716 0003194 129.6054 230.5223 15.19351866107668
STARLINK-1946           
1 46776U 20074AP  22276.03561509  .00125406  00000+0  13913-2 0  9997
2 46776  53.0490 140.6018 0008543 277.5025  82.5017 15.62023544108106
STARLINK-1798           
1 46779U 20074AS  22275.81981879 -.00002513  00000+0 -14996-3 0  9999
2 46779  53.0524 180.4688 0001491  86.8040 273.3120 15.06379413107825
STARLINK-1832           
1 46780U 20074AT  22276.14047585  .00001309  00000+0  10670-3 0  9990
2 46780  53.0550 179.0290 0001339  88.7883 271.3260 15.06412343107605
STARLINK-1834           
1 46781U 20074AU  22275.75991672  .00000160  00000+0  29627-4 0  9999
2 46781  53.0534 190.7412 0001265  93.2012 266.9122 15.06388964107683
STARLINK-1835           
1 46782U 20074AV  22275.79769409 -.00000155  00000+0  85162-5 0  9997
2 46782  53.0547 180.5630 0001292  85.2153 274.8983 15.06392475107825
STARLINK-1851           
1 46783U 20074AW  22276.14416714  .00004729  00000+0  33602-3 0  9996
2 46783  53.0516 179.0101 0001192  75.2613 284.8508 15.06413277107601
STARLINK-1882           
1 46784U 20074AX  22275.74884348 -.00000313  00000+0 -21017-5 0  9990
2 46784  53.0547 180.7577 0001443  81.4518 278.6634 15.06401470107810
STARLINK-1883           
1 46785U 20074AY  22275.46964799  .00003961  00000+0  28473-3 0  9990
2 46785  53.0525 182.0296 0001425  85.8639 274.2513 15.06394026107773
STARLINK-1893           
1 46786U 20074AZ  22275.84745745  .00006397  00000+0  44803-3 0  9992
2 46786  53.0527 160.3479 0001357 110.5816 249.5318 15.06391166108114
STARLINK-1899           
1 46787U 20074BA  22275.84008916  .00006473  00000+0  45316-3 0  9990
2 46787  53.0537 160.3676 0001356 103.8051 256.3089 15.06392793108118
STARLINK-1929           
1 46788U 20074BB  22275.83271501  .00000143  00000+0  28528-4 0  9997
2 46788  53.0538 160.4008 0001558  77.7045 282.4118 15.06390899108114
STARLINK-1930           
1 46789U 20074BC  22276.18749983  .00001041  00000+0  88795-4 0  9991
2 46789  53.0541 188.9788 0001638  66.3167 293.7994 15.06403381107428
STARLINK-1931           
1 46790U 20074BD  22276.15061664  .00000899  00000+0  79202-4 0  9996
2 46790  53.0526 188.9826 0001246  99.7610 260.3519 15.06408317107410
STARLINK-1933           
1 46791U 20074BE  22276.16535939  .00002880  00000+0  21205-3 0  9990
2 46791  53.0538 188.9140 0001355  90.4719 269.6425 15.06413439107411
STARLINK-1934           
1 46792U 20074BF  22276.12574314  .00000298  00000+0  38877-4 0  9992
2 46792  53.0567 179.0871 0001414  85.8333 274.2818 15.06401266107549
STARLINK-1941           
1 46793U 20074BG  22275.49084363 -.00000573  00000+0 -19589-4 0  9999
2 46793  53.0558 191.9464 0001366  81.8818 278.2326 15.06389056107631
STARLINK-1942           
1 46794U 20074BH  22276.02899276  .00003034  00000+0  22258-3 0  9996
2 46794  53.0522 189.5290 0001638  83.4014 276.7161 15.06389078107398
STARLINK-1944           
1 46796U 20074BK  22276.13680193  .00000225  00000+0  33993-4 0  9994
2 46796  53.0545 179.0443 0001318  97.0264 263.0875 15.06399915107552
STARLINK-1948           
1 46798U 20074BM  22276.16856740  .00000103  00000+0  25826-4 0  9993
2 46798  53.0531 203.9017 0001862  70.5543 289.5647 15.06398706107279
